CCSDS_OMM_VERS = 2.0
CREATION_DATE  = 
ORIGINATOR     = 

OBJECT_NAME    = SL-3 R/B
OBJECT_ID      = 1982-079B
CENTER_NAME    = EARTH
REF_FRAME      = TEME
TIME_SYSTEM    = UTC
MEAN_ELEMENT_THEORY = SGP/SGP4

EPOCH          = 2025-11-28T19:44:10.069728
MEAN_MOTION    = 15.23352186
ECCENTRICITY   = .0026441
INCLINATION    = 81.1464
RA_OF_ASC_NODE = 312.0648
ARG_OF_PERICENTER = 143.9274
MEAN_ANOMALY   = 216.3749

EPHEMERIS_TYPE = 0
CLASSIFICATION_TYPE = U
NORAD_CAT_ID   = 13403
ELEMENT_SET_NO = 999
REV_AT_EPOCH   = 36233
BSTAR          = .26778E-3
MEAN_MOTION_DOT = .645E-4
MEAN_MOTION_DDOT = 0

CCSDS_OMM_VERS = 2.0
CREATION_DATE  = 
ORIGINATOR     = 

OBJECT_NAME    = SL-14 R/B
OBJECT_ID      = 1982-092B
CENTER_NAME    = EARTH
REF_FRAME      = TEME
TIME_SYSTEM    = UTC
MEAN_ELEMENT_THEORY = SGP/SGP4

EPOCH          = 2025-11-28T19:32:58.681248
MEAN_MOTION    = 14.86532782
ECCENTRICITY   = .0018813
INCLINATION    = 82.5689
RA_OF_ASC_NODE = 235.7334
ARG_OF_PERICENTER = 276.8529
MEAN_ANOMALY   = 145.7047

EPHEMERIS_TYPE = 0
CLASSIFICATION_TYPE = U
NORAD_CAT_ID   = 13553
ELEMENT_SET_NO = 999
REV_AT_EPOCH   = 31394
BSTAR          = .6279E-4
MEAN_MOTION_DOT = .581E-5
MEAN_MOTION_DDOT = 0

CCSDS_OMM_VERS = 2.0
CREATION_DATE  = 
ORIGINATOR     = 

OBJECT_NAME    = SL-3 R/B
OBJECT_ID      = 1983-010B
CENTER_NAME    = EARTH
REF_FRAME      = TEME
TIME_SYSTEM    = UTC
MEAN_ELEMENT_THEORY = SGP/SGP4

EPOCH          = 2025-11-28T12:09:46.311264
MEAN_MOTION    = 15.42909261
ECCENTRICITY   = .0017877
INCLINATION    = 81.1026
RA_OF_ASC_NODE = 125.9843
ARG_OF_PERICENTER = 40.3976
MEAN_ANOMALY   = 319.8591

EPHEMERIS_TYPE = 0
CLASSIFICATION_TYPE = U
NORAD_CAT_ID   = 13819
ELEMENT_SET_NO = 999
REV_AT_EPOCH   = 34232
BSTAR          = .33688576E-3
MEAN_MOTION_DOT = .14924E-3
MEAN_MOTION_DDOT = 0

CCSDS_OMM_VERS = 2.0
CREATION_DATE  = 
ORIGINATOR     = 

OBJECT_NAME    = SL-3 R/B
OBJECT_ID      = 1983-075B
CENTER_NAME    = EARTH
REF_FRAME      = TEME
TIME_SYSTEM    = UTC
MEAN_ELEMENT_THEORY = SGP/SGP4

EPOCH          = 2025-11-28T18:43:22.449216
MEAN_MOTION    = 15.35723025
ECCENTRICITY   = .0021304
INCLINATION    = 97.6110
RA_OF_ASC_NODE = 328.7998
ARG_OF_PERICENTER = 227.1270
MEAN_ANOMALY   = 132.8184

EPHEMERIS_TYPE = 0
CLASSIFICATION_TYPE = U
NORAD_CAT_ID   = 14208
ELEMENT_SET_NO = 999
REV_AT_EPOCH   = 31465
BSTAR          = .30945E-3
MEAN_MOTION_DOT = .10747E-3
MEAN_MOTION_DDOT = 0

CCSDS_OMM_VERS = 2.0
CREATION_DATE  = 
ORIGINATOR     = 

OBJECT_NAME    = COSMOS 1536
OBJECT_ID      = 1984-013A
CENTER_NAME    = EARTH
REF_FRAME      = TEME
TIME_SYSTEM    = UTC
MEAN_ELEMENT_THEORY = SGP/SGP4

EPOCH          = 2025-11-28T09:53:11.462208
MEAN_MOTION    = 15.22288586
ECCENTRICITY   = .00132243
INCLINATION    = 82.5463
RA_OF_ASC_NODE = 208.3695
ARG_OF_PERICENTER = 281.9721
MEAN_ANOMALY   = 78.0033

EPHEMERIS_TYPE = 0
CLASSIFICATION_TYPE = U
NORAD_CAT_ID   = 14699
ELEMENT_SET_NO = 999
REV_AT_EPOCH   = 25720
BSTAR          = .30789908E-3
MEAN_MOTION_DOT = .7136E-4
MEAN_MOTION_DDOT = 0

CCSDS_OMM_VERS = 2.0
CREATION_DATE  = 
ORIGINATOR     = 

OBJECT_NAME    = SL-14 R/B
OBJECT_ID      = 1984-027B
CENTER_NAME    = EARTH
REF_FRAME      = TEME
TIME_SYSTEM    = UTC
MEAN_ELEMENT_THEORY = SGP/SGP4

EPOCH          = 2025-11-28T13:09:29.000448
MEAN_MOTION    = 14.85850561
ECCENTRICITY   = .00167738
INCLINATION    = 82.5412
RA_OF_ASC_NODE = 339.8664
ARG_OF_PERICENTER = 311.9959
MEAN_ANOMALY   = 47.9828

EPHEMERIS_TYPE = 0
CLASSIFICATION_TYPE = U
NORAD_CAT_ID   = 14820
ELEMENT_SET_NO = 999
REV_AT_EPOCH   = 23261
BSTAR          = .62663675E-4
MEAN_MOTION_DOT = .571E-5
MEAN_MOTION_DDOT = 0

CCSDS_OMM_VERS = 2.0
CREATION_DATE  = 
ORIGINATOR     = 

OBJECT_NAME    = SL-8 R/B
OBJECT_ID      = 1985-006B
CENTER_NAME    = EARTH
REF_FRAME      = TEME
TIME_SYSTEM    = UTC
MEAN_ELEMENT_THEORY = SGP/SGP4

EPOCH          = 2025-11-28T14:47:31.960896
MEAN_MOTION    = 14.37707754
ECCENTRICITY   = .00180716
INCLINATION    = 74.0458
RA_OF_ASC_NODE = 87.1181
ARG_OF_PERICENTER = 23.4270
MEAN_ANOMALY   = 347.5850

EPHEMERIS_TYPE = 0
CLASSIFICATION_TYPE = U
NORAD_CAT_ID   = 15483
ELEMENT_SET_NO = 999
REV_AT_EPOCH   = 13950
BSTAR          = .11418196E-3
MEAN_MOTION_DOT = .318E-5
MEAN_MOTION_DDOT = 0

CCSDS_OMM_VERS = 2.0
CREATION_DATE  = 
ORIGINATOR     = 

OBJECT_NAME    = SL-12 R/B(2)
OBJECT_ID      = 1985-042D
CENTER_NAME    = EARTH
REF_FRAME      = TEME
TIME_SYSTEM    = UTC
MEAN_ELEMENT_THEORY = SGP/SGP4

EPOCH          = 2025-11-28T09:43:42.799008
MEAN_MOTION    = 14.21944733
ECCENTRICITY   = .00376718
INCLINATION    = 71.1080
RA_OF_ASC_NODE = 301.7030
ARG_OF_PERICENTER = 282.4868
MEAN_ANOMALY   = 191.3827

EPHEMERIS_TYPE = 0
CLASSIFICATION_TYPE = U
NORAD_CAT_ID   = 15772
ELEMENT_SET_NO = 999
REV_AT_EPOCH   = 9999
BSTAR          = .11215402E-3
MEAN_MOTION_DOT = .202E-5
MEAN_MOTION_DDOT = 0

CCSDS_OMM_VERS = 2.0
CREATION_DATE  = 
ORIGINATOR     = 

OBJECT_NAME    = SL-14 R/B
OBJECT_ID      = 1985-069B
CENTER_NAME    = EARTH
REF_FRAME      = TEME
TIME_SYSTEM    = UTC
MEAN_ELEMENT_THEORY = SGP/SGP4

EPOCH          = 2025-11-28T11:54:51.881184
MEAN_MOTION    = 14.86297118
ECCENTRICITY   = .00192539
INCLINATION    = 82.5252
RA_OF_ASC_NODE = 120.0929
ARG_OF_PERICENTER = 163.3436
MEAN_ANOMALY   = 196.8418

EPHEMERIS_TYPE = 0
CLASSIFICATION_TYPE = U
NORAD_CAT_ID   = 15945
ELEMENT_SET_NO = 999
REV_AT_EPOCH   = 15780
BSTAR          = .7533888E-4
MEAN_MOTION_DOT = .689E-5
MEAN_MOTION_DDOT = 0

CCSDS_OMM_VERS = 2.0
CREATION_DATE  = 
ORIGINATOR     = 

OBJECT_NAME    = SL-16 R/B
OBJECT_ID      = 1985-097B
CENTER_NAME    = EARTH
REF_FRAME      = TEME
TIME_SYSTEM    = UTC
MEAN_ELEMENT_THEORY = SGP/SGP4

EPOCH          = 2025-11-28T19:42:46.019808
MEAN_MOTION    = 14.16582550
ECCENTRICITY   = .0005866
INCLINATION    = 71.0037
RA_OF_ASC_NODE = 352.9064
ARG_OF_PERICENTER = 33.7664
MEAN_ANOMALY   = 146.3573

EPHEMERIS_TYPE = 0
CLASSIFICATION_TYPE = U
NORAD_CAT_ID   = 16182
ELEMENT_SET_NO = 999
REV_AT_EPOCH   = 7294
BSTAR          = -.29233E-4
MEAN_MOTION_DOT = -.106E-5
MEAN_MOTION_DDOT = 0

CCSDS_OMM_VERS = 2.0
CREATION_DATE  = 
ORIGINATOR     = 

OBJECT_NAME    = SL-14 R/B
OBJECT_ID      = 1986-006B
CENTER_NAME    = EARTH
REF_FRAME      = TEME
TIME_SYSTEM    = UTC
MEAN_ELEMENT_THEORY = SGP/SGP4

EPOCH          = 2025-11-28T13:34:13.522656
MEAN_MOTION    = 14.86641537
ECCENTRICITY   = .00753074
INCLINATION    = 82.5271
RA_OF_ASC_NODE = 354.8892
ARG_OF_PERICENTER = 247.4786
MEAN_ANOMALY   = 111.8447

EPHEMERIS_TYPE = 0
CLASSIFICATION_TYPE = U
NORAD_CAT_ID   = 16496
ELEMENT_SET_NO = 999
REV_AT_EPOCH   = 13418
BSTAR          = .77765346E-4
MEAN_MOTION_DOT = .752E-5
MEAN_MOTION_DDOT = 0

CCSDS_OMM_VERS = 2.0
CREATION_DATE  = 
ORIGINATOR     = 

OBJECT_NAME    = COSMOS 1743
OBJECT_ID      = 1986-034A
CENTER_NAME    = EARTH
REF_FRAME      = TEME
TIME_SYSTEM    = UTC
MEAN_ELEMENT_THEORY = SGP/SGP4

EPOCH          = 2025-11-28T20:28:45.554592
MEAN_MOTION    = 15.51156490
ECCENTRICITY   = .0005207
INCLINATION    = 82.5360
RA_OF_ASC_NODE = 179.0033
ARG_OF_PERICENTER = 315.3743
MEAN_ANOMALY   = 44.7089

EPHEMERIS_TYPE = 0
CLASSIFICATION_TYPE = U
NORAD_CAT_ID   = 16719
ELEMENT_SET_NO = 999
REV_AT_EPOCH   = 16458
BSTAR          = .41934E-3
MEAN_MOTION_DOT = .24559E-3
MEAN_MOTION_DDOT = 0

