SL-3 R/B                
1 13403U 82079B   25332.82233877  .00006450  00000+0  26778-3 0  9999
2 13403  81.1464 312.0648 0026441 143.9274 216.3749 15.23352186362333
SL-14 R/B               
1 13553U 82092B   25332.81456807  .00000581  00000+0  62790-4 0  9993
2 13553  82.5689 235.7334 0018813 276.8529 145.7047 14.86532782313948
SL-3 R/B                
1 13819U 83010B   25332.50678601  .00014924  00000+0  33689-3 0  9993
2 13819  81.1026 125.9843 0017877  40.3976 319.8591 15.42909261342322
SL-3 R/B                
1 14208U 83075B   25332.78012094  .00010747  00000+0  30945-3 0  9996
2 14208  97.6110 328.7998 0021304 227.1270 132.8184 15.35723025314657
COSMOS 1536             
1 14699U 84013A   25332.41193822  .00007136  00000+0  30790-3 0  9998
2 14699  82.5463 208.3695 0013224 281.9721  78.0033 15.22288586257208
SL-14 R/B               
1 14820U 84027B   25332.54825232  .00000571  00000+0  62664-4 0  9992
2 14820  82.5412 339.8664 0016773 311.9959  47.9828 14.85850561232614
SL-8 R/B                
1 15483U 85006B   25332.61634214  .00000318  00000+0  11418-3 0  9991
2 15483  74.0458  87.1181 0018071  23.4270 347.5850 14.37707754139507
SL-12 R/B(2)            
1 15772U 85042D   25332.40535647  .00000202  00000+0  11215-3 0  9996
2 15772  71.1080 301.7030 0037671 282.4868 191.3827 14.21944733 99992
SL-14 R/B               
1 15945U 85069B   25332.49643381  .00000689  00000+0  75339-4 0  9998
2 15945  82.5252 120.0929 0019253 163.3436 196.8418 14.86297118157804
SL-16 R/B               
1 16182U 85097B   25332.82136597 -.00000106  00000+0 -29233-4 0  9994
2 16182  71.0037 352.9064 0005866  33.7664 146.3573 14.16582550 72949
SL-14 R/B               
1 16496U 86006B   25332.56543429  .00000752  00000+0  77765-4 0  9998
2 16496  82.5271 354.8892 0075307 247.4786 111.8447 14.86641537134180
COSMOS 1743             
1 16719U 86034A   25332.85330503  .00024559  00000+0  41934-3 0  9995
2 16719  82.5360 179.0033 0005207 315.3743  44.7089 15.51156490164586
